CTC2_L_00138001-01
1 80246U 26254NU  26037.47791667  .00000000  00000+0  00000-0 0  9993
2 80246  40.0000   0.0000 0000000   0.0000   0.0000 15.08755970    14
CTC2_L_00138001-02
1 80247U 25842XF  26037.47791667  .00000000  00000+0  00000-0 0  9996
2 80247  40.0000   0.0000 0000000   0.0000  90.0000 15.08755970    14
CTC2_L_00138001-03
1 80248U 23033EK  26037.47791667  .00000000  00000+0  00000-0 0  9997
2 80248  40.0000   0.0000 0000000   0.0000 180.0000 15.08755970    15
CTC2_L_00138001-04
1 80249U 23382FA  26037.47791667  .00000000  00000+0  00000-0 0  9995
2 80249  40.0000   0.0000 0000000   0.0000 270.0000 15.08755970    16
CTC2_L_00138002-01
1 80250U 23062I   26037.47791667  .00000000  00000+0  00000-0 0  9992
2 80250  40.0000  12.0000 0000000   0.0000  12.0000 15.08755970    15
CTC2_L_00138002-02
1 80251U 22431DO  26037.47791667  .00000000  00000+0  00000-0 0  9992
2 80251  40.0000  12.0000 0000000   0.0000 102.0000 15.08755970    16
CTC2_L_00138002-03
1 80252U 23015AU  26037.47791667  .00000000  00000+0  00000-0 0  9992
2 80252  40.0000  12.0000 0000000   0.0000 192.0000 15.08755970    16
CTC2_L_00138002-04
1 80253U 23618FL  26037.47791667  .00000000  00000+0  00000-0 0  9992
2 80253  40.0000  12.0000 0000000   0.0000 282.0000 15.08755970    17
CTC2_L_00138003-01
1 80254U 23572NG  26037.47791667  .00000000  00000+0  00000-0 0  9992
2 80254  40.0000  24.0000 0000000   0.0000  24.0000 15.08755970    15
CTC2_L_00138003-02
1 80255U 26681GZ  26037.47791667  .00000000  00000+0  00000-0 0  9997
2 80255  40.0000  24.0000 0000000   0.0000 114.0000 15.08755970    16
CTC2_L_00138003-03
1 80256U 26477GP  26037.47791667  .00000000  00000+0  00000-0 0  9991
2 80256  40.0000  24.0000 0000000   0.0000 204.0000 15.08755970    17
CTC2_L_00138003-04
1 80257U 23747BD  26037.47791667  .00000000  00000+0  00000-0 0  9999
2 80257  40.0000  24.0000 0000000   0.0000 294.0000 15.08755970    17
CTC2_L_00138004-01
1 80258U 25992ZE  26037.47791667  .00000000  00000+0  00000-0 0  9994
2 80258  40.0000  36.0000 0000000   0.0000  36.0000 15.08755970    15
CTC2_L_00138004-02
1 80259U 24214ZL  26037.47791667  .00000000  00000+0  00000-0 0  9991
2 80259  40.0000  36.0000 0000000   0.0000 126.0000 15.08755970    16
CTC2_L_00138004-03
1 80260U 25138PO  26037.47791667  .00000000  00000+0  00000-0 0  9999
2 80260  40.0000  36.0000 0000000   0.0000 216.0000 15.08755970    18
CTC2_L_00138004-04
1 80261U 25510MU  26037.47791667  .00000000  00000+0  00000-0 0  9994
2 80261  40.0000  36.0000 0000000   0.0000 306.0000 15.08755970    19
CTC2_L_00138005-01
1 80262U 22086NB  26037.47791667  .00000000  00000+0  00000-0 0  9990
2 80262  40.0000  48.0000 0000000   0.0000  48.0000 15.08755970    16
CTC2_L_00138005-02
1 80263U 22761BI  26037.47791667  .00000000  00000+0  00000-0 0  9991
2 80263  40.0000  48.0000 0000000   0.0000 138.0000 15.08755970    17
CTC2_L_00138005-03
1 80264U 24511SC  26037.47791667  .00000000  00000+0  00000-0 0  9997
2 80264  40.0000  48.0000 0000000   0.0000 228.0000 15.08755970    18
CTC2_L_00138005-04
1 80265U 24761JR  26037.47791667  .00000000  00000+0  00000-0 0  9995
2 80265  40.0000  48.0000 0000000   0.0000 318.0000 15.08755970    19
CTC2_L_00138006-01
1 80266U 26161VG  26037.47791667  .00000000  00000+0  00000-0 0  9992
2 80266  40.0000  60.0000 0000000   0.0000  60.0000 15.08755970    18
CTC2_L_00138006-02
1 80267U 25004GU  26037.47791667  .00000000  00000+0  00000-0 0  9998
2 80267  40.0000  60.0000 0000000   0.0000 150.0000 15.08755970    19
CTC2_L_00138006-03
1 80268U 22391YO  26037.47791667  .00000000  00000+0  00000-0 0  9995
2 80268  40.0000  60.0000 0000000   0.0000 240.0000 15.08755970    10
CTC2_L_00138006-04
1 80269U 24397WZ  26037.47791667  .00000000  00000+0  00000-0 0  9994
2 80269  40.0000  60.0000 0000000   0.0000 330.0000 15.08755970    11
CTC2_L_00138007-01
1 80270U 22054AJ  26037.47791667  .00000000  00000+0  00000-0 0  9994
2 80270  40.0000  72.0000 0000000   0.0000  72.0000 15.08755970    19
CTC2_L_00138007-02
1 80271U 25497QW  26037.47791667  .00000000  00000+0  00000-0 0  9999
2 80271  40.0000  72.0000 0000000   0.0000 162.0000 15.08755970    10
CTC2_L_00138007-03
1 80272U 22236SV  26037.47791667  .00000000  00000+0  00000-0 0  9998
2 80272  40.0000  72.0000 0000000   0.0000 252.0000 15.08755970    11
CTC2_L_00138007-04
1 80273U 25034IE  26037.47791667  .00000000  00000+0  00000-0 0  9998
2 80273  40.0000  72.0000 0000000   0.0000 342.0000 15.08755970    12
CTC2_L_00138008-01
1 80274U 25088MP  26037.47791667  .00000000  00000+0  00000-0 0  9998
2 80274  40.0000  84.0000 0000000   0.0000  84.0000 15.08755970    19
CTC2_L_00138008-02
1 80275U 25112AF  26037.47791667  .00000000  00000+0  00000-0 0  9997
2 80275  40.0000  84.0000 0000000   0.0000 174.0000 15.08755970    10
CTC2_L_00138008-03
1 80276U 26745LU  26037.47791667  .00000000  00000+0  00000-0 0  9991
2 80276  40.0000  84.0000 0000000   0.0000 264.0000 15.08755970    11
CTC2_L_00138008-04
1 80277U 22070NN  26037.47791667  .00000000  00000+0  00000-0 0  9999
2 80277  40.0000  84.0000 0000000   0.0000 354.0000 15.08755970    12
CTC2_L_00138009-01
1 80278U 25172EK  26037.47791667  .00000000  00000+0  00000-0 0  9996
2 80278  40.0000  96.0000 0000000   0.0000  96.0000 15.08755970    19
CTC2_L_00138009-02
1 80279U 25168G   26037.47791667  .00000000  00000+0  00000-0 0  9992
2 80279  40.0000  96.0000 0000000   0.0000 186.0000 15.08755970    10
CTC2_L_00138009-03
1 80280U 23733QR  26037.47791667  .00000000  00000+0  00000-0 0  9990
2 80280  40.0000  96.0000 0000000   0.0000 276.0000 15.08755970    12
CTC2_L_00138009-04
1 80281U 22034VX  26037.47791667  .00000000  00000+0  00000-0 0  9994
2 80281  40.0000  96.0000 0000000   0.0000   6.0000 15.08755970    14
CTC2_L_00138010-01
1 80282U 24157LM  26037.47791667  .00000000  00000+0  00000-0 0  9993
2 80282  40.0000 108.0000 0000000   0.0000 108.0000 15.08755970    12
CTC2_L_00138010-02
1 80283U 23034UB  26037.47791667  .00000000  00000+0  00000-0 0  9997
2 80283  40.0000 108.0000 0000000   0.0000 198.0000 15.08755970    12
CTC2_L_00138010-03
1 80284U 22401IB  26037.47791667  .00000000  00000+0  00000-0 0  9995
2 80284  40.0000 108.0000 0000000   0.0000 288.0000 15.08755970    13
CTC2_L_00138010-04
1 80285U 22902LV  26037.47791667  .00000000  00000+0  00000-0 0  9992
2 80285  40.0000 108.0000 0000000   0.0000  18.0000 15.08755970    15
CTC2_L_00138011-01
1 80286U 23107NL  26037.47791667  .00000000  00000+0  00000-0 0  9991
2 80286  40.0000 120.0000 0000000   0.0000 120.0000 15.08755970    14
CTC2_L_00138011-02
1 80287U 24419MT  26037.47791667  .00000000  00000+0  00000-0 0  9999
2 80287  40.0000 120.0000 0000000   0.0000 210.0000 15.08755970    15
CTC2_L_00138011-03
1 80288U 22771VY  26037.47791667  .00000000  00000+0  00000-0 0  9999
2 80288  40.0000 120.0000 0000000   0.0000 300.0000 15.08755970    16
CTC2_L_00138011-04
1 80289U 26472KX  26037.47791667  .00000000  00000+0  00000-0 0  9992
2 80289  40.0000 120.0000 0000000   0.0000  30.0000 15.08755970    17
CTC2_L_00138012-01
1 80290U 24192HY  26037.47791667  .00000000  00000+0  00000-0 0  9991
2 80290  40.0000 132.0000 0000000   0.0000 132.0000 15.08755970    15
CTC2_L_00138012-02
1 80291U 25170FG  26037.47791667  .00000000  00000+0  00000-0 0  9999
2 80291  40.0000 132.0000 0000000   0.0000 222.0000 15.08755970    16
CTC2_L_00138012-03
1 80292U 24540RQ  26037.47791667  .00000000  00000+0  00000-0 0  9990
2 80292  40.0000 132.0000 0000000   0.0000 312.0000 15.08755970    17
CTC2_L_00138012-04
1 80293U 24892MT  26037.47791667  .00000000  00000+0  00000-0 0  9991
2 80293  40.0000 132.0000 0000000   0.0000  42.0000 15.08755970    18
CTC2_L_00138013-01
1 80294U 23651LV  26037.47791667  .00000000  00000+0  00000-0 0  9994
2 80294  40.0000 144.0000 0000000   0.0000 144.0000 15.08755970    15
CTC2_L_00138013-02
1 80295U 23943DU  26037.47791667  .00000000  00000+0  00000-0 0  9999
2 80295  40.0000 144.0000 0000000   0.0000 234.0000 15.08755970    16
CTC2_L_00138013-03
1 80296U 22334FG  26037.47791667  .00000000  00000+0  00000-0 0  9993
2 80296  40.0000 144.0000 0000000   0.0000 324.0000 15.08755970    17
CTC2_L_00138013-04
1 80297U 23288RB  26037.47791667  .00000000  00000+0  00000-0 0  9993
2 80297  40.0000 144.0000 0000000   0.0000  54.0000 15.08755970    18
CTC2_L_00138014-01
1 80298U 24683PK  26037.47791667  .00000000  00000+0  00000-0 0  9994
2 80298  40.0000 156.0000 0000000   0.0000 156.0000 15.08755970    15
CTC2_L_00138014-02
1 80299U 25845YI  26037.47791667  .00000000  00000+0  00000-0 0  9996
2 80299  40.0000 156.0000 0000000   0.0000 246.0000 15.08755970    16
CTC2_L_00138014-03
1 80300U 25794AB  26037.47791667  .00000000  00000+0  00000-0 0  9992
2 80300  40.0000 156.0000 0000000   0.0000 336.0000 15.08755970    19
CTC2_L_00138014-04
1 80301U 25204JR  26037.47791667  .00000000  00000+0  00000-0 0  9999
2 80301  40.0000 156.0000 0000000   0.0000  66.0000 15.08755970    10
CTC2_L_00138015-01
1 80302U 22566VO  26037.47791667  .00000000  00000+0  00000-0 0  9998
2 80302  40.0000 168.0000 0000000   0.0000 168.0000 15.08755970    17
CTC2_L_00138015-02
1 80303U 23607TN  26037.47791667  .00000000  00000+0  00000-0 0  9996
2 80303  40.0000 168.0000 0000000   0.0000 258.0000 15.08755970    18
CTC2_L_00138015-03
1 80304U 25505VK  26037.47791667  .00000000  00000+0  00000-0 0  9996
2 80304  40.0000 168.0000 0000000   0.0000 348.0000 15.08755970    19
CTC2_L_00138015-04
1 80305U 22717IY  26037.47791667  .00000000  00000+0  00000-0 0  9999
2 80305  40.0000 168.0000 0000000   0.0000  78.0000 15.08755970    10
CTC2_L_00138016-01
1 80306U 26234DI  26037.47791667  .00000000  00000+0  00000-0 0  9998
2 80306  40.0000 180.0000 0000000   0.0000 180.0000 15.08755970    19
CTC2_L_00138016-02
1 80307U 26968CN  26037.47791667  .00000000  00000+0  00000-0 0  9993
2 80307  40.0000 180.0000 0000000   0.0000 270.0000 15.08755970    10
